sat00742
1 00742U 64004C   20046.78992792  .00000037  00000-0  51391-4 0  9995
2 00742  81.4689 157.9417 0172526  74.6580 287.3536 13.25949635710748
